CCSDS_OEM_VERS = 2.0
COMMENT Orion Prime (Pre-OTC3, stitched with Apr-4 early trajectory)
CREATION_DATE = 2026-04-06T12:18:50
ORIGINATOR = NASA/JSC/FOD/FDO
 
META_START
OBJECT_NAME = EM2
OBJECT_ID = 24
CENTER_NAME = EARTH
REF_FRAME = EME2000
TIME_SYSTEM = UTC
START_TIME = 2026-04-02T03:07:49.583
USEABLE_START_TIME = 2026-04-02T03:07:49.583
USEABLE_STOP_TIME = 2026-04-10T23:53:21.112
STOP_TIME = 2026-04-10T23:53:21.112
META_STOP
 
 
COMMENT 
 
2026-04-05T11:55:05.944 -117838.281363142116 -279874.637203146413 -153383.329229266936 -0.08361072291859 -0.68654842799877 -0.37267517471750
2026-04-05T11:59:05.944 -117858.323480523410 -280039.326793644461 -153472.726769683533 -0.08340703972241 -0.68586493944160 -0.37230439386262
2026-04-05T12:03:05.944 -117878.316798765882 -280203.852428381273 -153562.035369534744 -0.08320406348924 -0.68518212967105 -0.37193400317967
2026-04-05T12:07:05.944 -117898.261487585085 -280368.214270037424 -153651.255122346949 -0.08300179459197 -0.68449999678616 -0.37156400171166
2026-04-05T12:11:05.944 -117918.157716787959 -280532.412480837782 -153740.386121417221 -0.08280023341930 -0.68381853889080 -0.37119438850496
2026-04-05T12:15:05.944 -117938.005656276640 -280696.447222552844 -153829.428459814197 -0.08259938037579 -0.68313775409363 -0.37082516260938
2026-04-05T12:19:05.944 -117957.805476052265 -280860.318656499672 -153918.382230378862 -0.08239923588196 -0.68245764050801 -0.37045632307808
2026-04-05T12:23:05.944 -117977.557346218833 -281024.026943543053 -154007.247525725339 -0.08219980037434 -0.68177819625201 -0.37008786896759
2026-04-05T12:27:05.944 -117997.261436987013 -281187.572244096780 -154096.024438241759 -0.08200107430561 -0.68109941944831 -0.36971979933777
2026-04-05T12:31:05.944 -118016.917918678097 -281350.954718124587 -154184.713060090988 -0.08180305814463 -0.68042130822418 -0.36935211325182
2026-04-05T12:35:05.944 -118036.526961727825 -281514.174525141309 -154273.313483211445 -0.08160575237656 -0.67974386071146 -0.36898480977621
2026-04-05T12:39:05.944 -118056.088736690363 -281677.231824213930 -154361.825799317943 -0.08140915750295 -0.67906707504643 -0.36861788798072
2026-04-05T12:43:05.944 -118075.603414242200 -281840.126773962693 -154450.250099902420 -0.08121327404180 -0.67839094936984 -0.36825134693838
2026-04-05T12:47:05.944 -118095.071165186149 -282002.859532562143 -154538.586476234719 -0.08101810252768 -0.67771548182684 -0.36788518572546
2026-04-05T12:51:05.944 -118114.492160455309 -282165.430257742235 -154626.835019363352 -0.08082364351183 -0.67704067056691 -0.36751940342148
2026-04-05T12:55:05.944 -118133.866571117076 -282327.839106789208 -154714.995820116339 -0.08062989756219 -0.67636651374384 -0.36715399910915
2026-04-05T12:59:05.944 -118153.194568377192 -282490.086236546864 -154803.068969101936 -0.08043686526360 -0.67569300951565 -0.36678897187437
2026-04-05T13:03:05.944 -118172.476323583775 -282652.171803417325 -154891.054556709365 -0.08024454721780 -0.67502015604459 -0.36642432080621
2026-04-05T13:07:05.944 -118191.712008231407 -282814.095963362139 -154978.952673109627 -0.08005294404358 -0.67434795149704 -0.36606004499690
2026-04-05T13:11:05.944 -118210.901793965240 -282975.858871903387 -155066.763408256200 -0.07986205637686 -0.67367639404347 -0.36569614354181
2026-04-05T13:15:05.944 -118230.045852585099 -283137.460684124497 -155154.486851885886 -0.07967188487080 -0.67300548185845 -0.36533261553940
2026-04-05T13:19:05.944 -118249.144356049670 -283298.901554671233 -155242.123093519447 -0.07948243019592 -0.67233521312049 -0.36496946009126
2026-04-05T13:23:05.944 -118268.197476480622 -283460.181637752685 -155329.672222462395 -0.07929369304017 -0.67166558601212 -0.36460667630204
2026-04-05T13:27:05.944 -118287.205386166868 -283621.301087142318 -155417.134327805747 -0.07910567410904 -0.67099659871972 -0.36424426327944
2026-04-05T13:31:05.944 -118306.168257568730 -283782.260056178668 -155504.509498426720 -0.07891837412569 -0.67032824943355 -0.36388222013423
2026-04-05T13:35:05.944 -118325.086263322242 -283943.058697766450 -155591.797822989465 -0.07873179383105 -0.66966053634768 -0.36352054598018
2026-04-05T13:39:05.944 -118343.959576243389 -284103.697164377372 -155678.999389945820 -0.07854593398393 -0.66899345765993 -0.36315923993407
2026-04-05T13:43:05.944 -118362.788369332426 -284264.175608051126 -155766.114287536009 -0.07836079536111 -0.66832701157181 -0.36279830111569
2026-04-05T13:47:05.944 -118381.572815778214 -284424.494180396199 -155853.142603789369 -0.07817637875751 -0.66766119628850 -0.36243772864775
2026-04-05T13:51:05.944 -118400.313088962575 -284584.653032590693 -155940.084426525020 -0.07799268498623 -0.66699601001877 -0.36207752165597
2026-04-05T13:55:05.944 -118419.009362464669 -284744.652315383253 -156026.939843352622 -0.07780971487873 -0.66633145097496 -0.36171767926894
2026-04-05T13:59:05.944 -118437.661810065416 -284904.492179093999 -156113.708941673016 -0.07762746928493 -0.66566751737288 -0.36135820061821
2026-04-05T14:03:05.944 -118456.270605751954 -285064.172773615108 -156200.391808679007 -0.07744594907331 -0.66500420743182 -0.36099908483821
2026-04-05T14:07:05.944 -118474.835923722101 -285223.694248411921 -156286.988531355979 -0.07726515513104 -0.66434151937445 -0.36064033106623
2026-04-05T14:11:05.944 -118493.357938388843 -285383.056752523582 -156373.499196482648 -0.07708508836415 -0.66367945142679 -0.36028193844245
2026-04-05T14:15:05.944 -118511.836824384867 -285542.260434563854 -156459.923890631646 -0.07690574969758 -0.66301800181814 -0.35992390610986
2026-04-05T14:19:05.944 -118530.272756567167 -285701.305442721990 -156546.262700170337 -0.07672714007537 -0.66235716878105 -0.35956623321428
2026-04-05T14:23:05.944 -118548.665910021591 -285860.191924763320 -156632.515711261367 -0.07654926046074 -0.66169695055126 -0.35920891890433
2026-04-05T14:27:05.944 -118567.016460067476 -286018.920028030232 -156718.683009863395 -0.07637211183629 -0.66103734536764 -0.35885196233144
2026-04-05T14:31:05.944 -118585.324582262328 -286177.489899442822 -156804.764681731758 -0.07619569520404 -0.66037835147212 -0.35849536264976
2026-04-05T14:35:05.944 -118603.590452406468 -286335.901685499528 -156890.760812419117 -0.07602001158565 -0.65971996710970 -0.35813911901623
2026-04-05T14:39:05.944 -118621.814246547801 -286494.155532277946 -156976.671487276151 -0.07584506202250 -0.65906219052831 -0.35778323059048
2026-04-05T14:43:05.944 -118639.996140986535 -286652.251585435646 -157062.496791452140 -0.07567084757587 -0.65840501997881 -0.35742769653487
2026-04-05T14:47:05.944 -118658.136312279996 -286810.189990210638 -157148.236809895694 -0.07549736932705 -0.65774845371494 -0.35707251601446
2026-04-05T14:51:05.944 -118676.234937247413 -286967.970891422185 -157233.891627355304 -0.07532462837750 -0.65709248999322 -0.35671768819697
2026-04-05T14:55:05.944 -118694.292192974826 -287125.594433471502 -157319.461328380101 -0.07515262584899 -0.65643712707294 -0.35636321225277
2026-04-05T14:59:05.944 -118712.308256819932 -287283.060760342283 -157404.945997320348 -0.07498136288374 -0.65578236321609 -0.35600908735487
2026-04-05T15:00:43.855 -118788.147228999995 -287300.486640000017 -157468.901546000008 -0.07631617500000 -0.65456769400000 -0.35648636600000
2026-04-05T15:04:43.855 -118806.442665621536 -287457.504420670448 -157554.415820543887 -0.07614592061347 -0.65391391099989 -0.35613264670143
2026-04-05T15:08:43.855 -118824.697330351279 -287614.365364928963 -157639.845244305063 -0.07597640943793 -0.65326072361223 -0.35577927600740
2026-04-05T15:12:43.855 -118842.911401706791 -287771.069615515182 -157725.189900850237 -0.07580764270133 -0.65260813010983 -0.35542625309835
2026-04-05T15:16:43.855 -118861.085058502911 -287927.617314754520 -157810.449873549689 -0.07563962165292 -0.65195612876798 -0.35507357715721
2026-04-05T15:20:43.855 -118879.218479856849 -288084.008604558825 -157895.625245577947 -0.07547234756337 -0.65130471786438 -0.35472124736945
2026-04-05T15:24:43.855 -118897.311845193370 -288240.243626426847 -157980.716099914309 -0.07530582172496 -0.65065389567912 -0.35436926292298
2026-04-05T15:28:43.855 -118915.365334249989 -288396.322521444818 -158065.722519343515 -0.07514004545170 -0.65000366049456 -0.35401762300823
2026-04-05T15:32:43.855 -118933.379127082226 -288552.245430287032 -158150.644586456241 -0.07497502007958 -0.64935401059536 -0.35366632681803
2026-04-05T15:36:43.855 -118951.353404068868 -288708.012493216374 -158235.482383649767 -0.07481074696663 -0.64870494426834 -0.35331537354765
2026-04-05T15:40:43.855 -118969.288345917317 -288863.623850084725 -158320.235993128532 -0.07464722749319 -0.64805645980244 -0.35296476239479
2026-04-05T15:44:43.855 -118987.184133668925 -289019.079640333715 -158404.905496904685 -0.07448446306204 -0.64740855548871 -0.35261449255950
2026-04-05T15:48:43.855 -119005.040948704453 -289174.380002994963 -158489.490976798697 -0.07432245509856 -0.64676122962018 -0.35226456324421
2026-04-05T15:52:43.855 -119022.858972749455 -289329.525076690654 -158573.992514439888 -0.07416120505097 -0.64611448049183 -0.35191497365372
2026-04-05T15:56:43.855 -119040.638387879822 -289484.514999634004 -158658.410191267030 -0.07400071439042 -0.64546830640054 -0.35156572299511
2026-04-05T16:00:43.855 -119058.379376527300 -289639.349909629731 -158742.744088528852 -0.07384098461128 -0.64482270564501 -0.35121681047782
2026-04-05T16:04:43.855 -119076.082121485102 -289794.029944074457 -158826.994287284615 -0.07368201723124 -0.64417767652570 -0.35086823531352
2026-04-05T16:08:43.855 -119093.746805913470 -289948.555239957117 -158911.160868404695 -0.07352381379156 -0.64353321734478 -0.35051999671620
2026-04-05T16:12:43.855 -119111.373613345408 -290102.925933859311 -158995.243912571052 -0.07336637585721 -0.64288932640603 -0.35017209390205
2026-04-05T16:16:43.855 -119128.962727692400 -290257.142161955824 -159079.243500277807 -0.07320970501712 -0.64224600201483 -0.34982452608952
